#aV2011  7 12  0  0   .00000000      96 DD+AD WGS84 FIT  NGA
## 1644 172800.00000000   900.00000000 55754  .0000000000000
+   31     2  3  4  5  6  7  8  9 10 11 12 13 14 15 16 17 18
+         19 20 21 22 23 24 25 26 27 28 29 30 31 32  0  0  0
+          0  0  0  0  0  0  0  0  0  0  0  0  0  0  0  0  0
+          0  0  0  0  0  0  0  0  0  0  0  0  0  0  0  0  0
+          0  0  0  0  0  0  0  0  0  0  0  0  0  0  0  0  0
++         0  0  0  0  0  0  0  0  0  0  0  0  0  0  0  0  0
++         0  0  0  0  0  0  0  0  0  0  0  0  0  0  0  0  0
++         0  0  0  0  0  0  0  0  0  0  0  0  0  0  0  0  0
++         0  0  0  0  0  0  0  0  0  0  0  0  0  0  0  0  0
++         0  0  0  0  0  0  0  0  0  0  0  0  0  0  0  0  0
%c cc cc ccc ccc cccc cccc cccc cccc ccccc ccccc ccccc ccccc
%c cc cc ccc ccc cccc cccc cccc cccc ccccc ccccc ccccc ccccc
%f  0.0000000  0.000000000  0.00000000000  0.000000000000000
%f  0.0000000  0.000000000  0.00000000000  0.000000000000000
%i    0    0    0    0      0      0      0      0         0
%i    0    0    0    0      0      0      0      0         0
/*      NGA, ST. LOUIS,MO.                                  
/*   EPHEMERIS COMPUTED FROM  3 DAYS OF DATA                
/* CCCCCCCCCCCCCCCCCCCCCCCCCCCCCCCCCCCCCCCCCCCCCCCCCCCCCCCCC
/* CCCCCCCCCCCCCCCCCCCCCCCCCCCCCCCCCCCCCCCCCCCCCCCCCCCCCCCCC
*  2011  7 12 13 15   .00000000                                                 
P  2  14054.707733  22853.901365    408.405050    346.226925                    
V  2  -2853.695715   1276.308946  30928.697846       .018316                    
P  3 -14220.374275 -12380.846488 -19247.701745    740.797437                    
V  3  23077.134651  -4962.206263 -13860.666653       .049223                    
P  4   2893.450343  22824.597781  12754.325160    170.068218                    
V  4 -11368.031555 -12665.137137  25173.339876       .108211                    
P  5   6592.079252  16774.634398 -19486.293469   -188.193394                    
V  5 -13083.633500  21082.287747  13836.380746      -.055240                    
P  6  -9358.109504 -14242.738769 -20272.750754      5.803271                    
V  6  25962.365924  -3010.457616  -9557.401654      -.848328                    
P  7 -11993.992235   8950.810914 -21930.458880     17.622556                    
V  7 -14419.958590 -23793.279045  -2043.894754       .014418                    
P  8  -5675.378206  16910.938568 -19445.067474      8.482052                    
V  8 -12026.926822 -21789.659782 -15958.579425       .001510                    
P  9  18621.343347  10525.854375  15180.117418     92.246312                    
V  9   9399.576269  18010.549765 -23188.890404       .024087                    
P 10  -7201.453957  24108.560425  -8097.700593     -6.494448                    
V 10  -7853.673613   7147.763775  29408.606619      -.011723                    
P 11 -22390.449034  -9644.660076  10601.025265   -167.410154                    
V 11  -7163.122270 -12735.438921 -25561.659774      -.032711                    
P 12  16879.536333  -1715.242030  20401.895690      8.627920                    
V 12 -12015.408881  22940.973801  12047.835767       .025525                    
P 13 -24229.154130   5042.722646  -9880.686686    261.470654                    
V 13 -12160.747695  -2352.315651  28969.334666      -.017327                    
P 14   8134.269744 -13896.611411  21255.272202    161.175259                    
V 14  26542.191271   1601.503272  -9323.471923       .020935                    
P 15  24808.813367   4953.581011  -8356.719240   -116.352007                    
V 15 -10463.466050   3233.250529 -28958.977392       .020778                    
P 16  -5963.679200 -16332.706845 -19971.190804   -184.942785                    
V 16  13978.077646 -21283.564863  13516.235824      -.024198                    
P 17  -7124.838782  14646.897076  21079.782429    182.462021                    
V 17 -26476.153617  -1043.071512  -8500.737328      -.007384                    
P 18  16561.744422 -19330.182262  -6533.241567    146.819600                    
V 18   -976.057586   9617.395754 -29833.664323       .019166                    
P 19 -22861.733627  -8897.256315 -10634.916001   -161.226317                    
V 19  13483.133079  -1399.489187 -27485.505089      -.040890                    
P 20 -17982.488264   4868.377640  18766.309055     50.635869                    
V 20   9214.105696 -22499.004333  14616.758578       .003597                    
P 21  10926.489635 -11722.765150 -20682.066989   -157.352051                    
V 21  14891.201784  23081.618841  -5715.966471      -.025607                    
P 22   9467.420558 -24242.838026   5170.180045    146.443392                    
V 22   6427.819236  -3687.039758 -30204.803433      -.003357                    
P 23 -26735.723033   -432.416342   1030.280543    292.436504                    
V 23   1259.205365  -2416.858956  31558.417683      -.028579                    
P 24 -18464.534183  -7408.913798  17788.384917    406.036442                    
V 24  -9120.472989 -20540.927344 -17780.585820       .031787                    
P 25  18012.369858 -14257.965425  13281.352942      8.661023                    
V 25  -6030.929751  15945.569931  25275.042163       .019104                    
P 26  16186.532728  12595.532281 -17687.885519    -88.587581                    
V 26 -21097.511009   -345.507514 -19859.924514      -.119665                    
P 27  19349.833913  14651.350371  11834.729770    283.922946                    
V 27   6537.498126  12317.758334 -27128.803890       .037670                    
P 28 -12187.566765  23358.944466   2467.431998     51.344650                    
V 28  -3471.359513    840.331900 -32042.687025       .028032                    
P 29  24696.725075  -5237.276380  -8105.293493    222.610120                    
V 29  10359.077285   2805.792774  29524.480008       .030818                    
P 30    601.326303 -22927.475415 -13796.013204     22.592860                    
V 30   9326.164279 -14165.390477  24719.172597       .047004                    
P 31  -5189.245453 -23501.969436  11189.315626    109.775230                    
V 31   8847.680170  10978.514227  27854.376238       .058781                    
P 32 -14920.939049  -5179.150079  21582.758115   -290.246462                    
V 32  14382.075463 -22666.424113   4979.790579      -.070880                    
EOF
